0 SL-8 R/B
1 07477U 74079B   13281.48676866  .00000021  00000-0  70970-5 0  5872
2 07477 082.9411 319.9592 0032630 255.0693 214.9460 13.73991670953553
0 SL-8 R/B
1 07477U 74079B   13283.53343637  .00000019  00000-0  46532-5 0  5882
2 07477 082.9408 318.4452 0032723 249.2120 258.6795 13.73991633953837
0 SL-8 R/B
1 07477U 74079B   13285.71619025  .00000009  00000-0 -62723-5 0  5892
2 07477 082.9406 316.8305 0032811 242.9296 255.5902 13.73991807954139
0 SL-8 R/B
1 07477U 74079B   13288.17697906 -.00000015  00000-0 -31971-4 0  5909
2 07477 082.9404 315.0101 0032945 235.9328 187.7046 13.73991804954477
0 SL-8 R/B
1 07477U 74079B   13290.52761071 -.00000014  00000-0 -30747-4 0  5916
2 07477 082.9402 313.2710 0033071 229.2866 294.8987 13.73991651954794
0 SL-8 R/B
1 07477U 74079B   13293.05709330 -.00000010  00000-0 -26898-4 0  5926
2 07477 082.9401 311.3995 0033231 222.0744 206.8232 13.73991304955142
0 SL-8 R/B
1 07477U 74079B   13295.48014409 -.00000015  00000-0 -31888-4 0  5932
2 07477 082.9401 309.6067 0033369 215.2727 312.1798 13.73990889955470
